INTELSAT 902 (IS-902)   
1 26900U 01039A   26148.37168051 -.00000276  00000+0  00000+0 0  9996
2 26900   6.0685  72.0202 0004214 350.1959 267.4026  1.00272114 90497
INTELSAT 904 (IS-904)   
1 27380U 02007A   26148.42884446 -.00000219  00000+0  00000+0 0  9991
2 27380   6.8727  69.4200 0007394 353.2400 306.2132  1.00272569 51569
DIRECTV 5 (TEMPO 1)     
1 27426U 02023A   26148.53098250 -.00000050  00000+0  00000+0 0  9995
2 27426   4.8295  75.5523 0003507 353.1291 258.4451  1.00272693 87922
INTELSAT 905 (IS-905)   
1 27438U 02027A   26148.54102758  .00000100  00000+0  00000+0 0  9997
2 27438   6.7063  70.0352 0004231   3.9403 229.6640  1.00271775 51166
GALAXY 3C (G-3C)        
1 27445U 02030A   26148.52445538 -.00000144  00000+0  00000+0 0  9992
2 27445   3.6813  78.2389 0001912  24.2584 237.5157  1.00272016 46290
INTELSAT 906 (IS-906)   
1 27513U 02041A   26147.51471575  .00000018  00000+0  00000+0 0  9997
2 27513   5.7514  73.1712 0004592 349.6710  71.6703  1.00271999 86829
GALAXY 13 (HORIZONS-1)  
1 27954U 03044A   26148.54713721  .00000141  00000+0  00000+0 0  9993
2 27954   1.3692  84.0899 0002107 342.4739 226.5224  1.00274456 46372
INTELSAT 10-02          
1 28358U 04022A   26148.36409847 -.00000004  00000+0  00000+0 0  9999
2 28358   0.0296  43.3843 0000328 317.5626  15.0379  1.00262899 80351
DIRECTV 8               
1 28659U 05019A   26148.47480978  .00000010  00000+0  00000+0 0  9992
2 28659   0.0195  48.7637 0003246  24.6886 224.4490  1.00271105 76871
GALAXY 28 (G-28)        
1 28702U 05022A   26148.35889845 -.00000192  00000+0  00000+0 0  9990
2 28702   3.2497  79.1751 0003315 346.0621 282.7659  1.00274605 51774
GALAXY 16 (G-16)        
1 29236U 06023A   26148.52599593  .00000000  00000+0  00000+0 0  9999
2 29236   0.0218  77.3042 0002832 355.9666 263.1549  1.00272246 72770
DIRECTV 9S              
1 29494U 06043A   26148.52731244 -.00000105  00000+0  00000+0 0  9995
2 29494   2.3718  81.1342 0005051 357.2494 256.3241  1.00271821 51185
GALAXY 17 (G-17)        
1 31307U 07016B   26148.49004263 -.00000198  00000+0  00000+0 0  9994
2 31307   2.9243  80.1431 0004776   4.8053 252.5045  1.00272386 69600
INTELSAT 11 (IS-11)     
1 32253U 07044B   26148.54843714  .00000037  00000+0  00000+0 0  9995
2 32253   3.5161  78.9021 0001081  71.1464 145.5416  0.99050603 68252
HORIZONS-2              
1 32388U 07063B   26148.49220931 -.00000245  00000+0  00000+0 0  9991
2 32388   2.5531  80.8633 0004083 347.4645 281.1273  1.00271823 67616
DIRECTV 11              
1 32729U 08013A   26148.41542169 -.00000117  00000+0  00000+0 0  9996
2 32729   0.0034 196.2650 0000273 192.8966 267.1581  1.00270352 45395
GALAXY 18 (G-18)        
1 32951U 08024A   26148.55818169  .00000034  00000+0  00000+0 0  9993
2 32951   0.0516 100.5512 0003207 332.7578 250.7458  1.00274079 45656
INTELSAT 25 (IS-25)     
1 33153U 08034A   26148.54706271  .00000023  00000+0  00000+0 0  9996
2 33153   2.6594  80.5429 0001848  18.0319 193.8693  0.99034044 65490
GALAXY 19 (G-19)        
1 33376U 08045A   26148.46653148 -.00000130  00000+0  00000+0 0  9990
2 33376   0.0457 115.4193 0003267 323.4461 238.0999  1.00271374 64707
FM-5                    
1 35493U 09034A   26148.48978263 -.00000191  00000+0  00000+0 0  9998
2 35493   0.0145 306.0752 0000366 335.7276  54.3966  1.00270299 46448
INTELSAT 14 (IS-14)     
1 36097U 09064A   26148.42661544 -.00000265  00000+0  00000+0 0  9999
2 36097   0.0176 339.3141 0002665  96.8719 278.3755  1.00272087 60408
INTELSAT 15 (IS-15)     
1 36106U 09067A   26148.52375610 -.00000176  00000+0  00000+0 0  9991
2 36106   0.0151 316.3766 0002422 109.0281  94.3608  1.00272489 41039
DIRECTV 12              
1 36131U 09075A   26148.46860770 -.00000095  00000+0  00000+0 0  9997
2 36131   0.0091  87.4249 0000244 281.3676 303.1840  1.00272471 46354
INTELSAT 16 (IS-16)     
1 36397U 10006A   26148.49177596 -.00000236  00000+0  00000+0 0  9994
2 36397   0.0094 305.6824 0002878 153.6627 247.5313  1.00272321 59452
XM-5                    
1 37185U 10053A   26148.27015617 -.00000014  00000+0  00000+0 0  9997
2 37185   0.0592 274.5866 0003387 275.3334  37.9511  1.00270919 57285
INTELSAT 17 (IS-17)     
1 37238U 10065B   26148.51994277  .00000008  00000+0  00000+0 0  9996
2 37238   0.0175 143.7524 0002407 282.7853  72.7128  1.00270525 53054
INTELSAT 28 (IS-28)     
1 37392U 11016A   26148.41458529 -.00000216  00000+0  00000+0 0  9990
2 37392   1.7568  82.8574 0003948 343.4551 297.1960  1.00272841 53081
INTELSAT 18 (IS-18)     
1 37834U 11056A   26148.52058382  .00000062  00000+0  00000+0 0  9998
2 37834   0.0163 302.2357 0002139 131.3296 179.9113  1.00272084 53619
INTELSAT 22 (IS-22)     
1 38098U 12011A   26148.52115610 -.00000049  00000+0  00000+0 0  9997
2 38098   0.0130 327.9215 0002087  94.9347  82.9189  1.00271557  6995
INTELSAT 19 (IS-19)     
1 38356U 12030A   26148.53169905 -.00000047  00000+0  00000+0 0  9990
2 38356   0.0177 335.2770 0003230  95.3369 172.8812  1.00270919 50252
INTELSAT 20 (IS-20)     
1 38740U 12043A   26148.44914888 -.00000016  00000+0  00000+0 0  9995
2 38740   0.0094 139.5614 0001593  44.0153 292.6205  1.00272718 50550
INTELSAT 21 (IS-21)     
1 38749U 12045A   26148.35274508 -.00000276  00000+0  00000+0 0  9992
2 38749   0.0161   8.3400 0002014  66.5857 239.9570  1.00270767 50325
INTELSAT 23 (IS-23)     
1 38867U 12057A   26148.49610933 -.00000276  00000+0  00000+0 0  9997
2 38867   0.0125 300.4516 0000272 222.0239 209.1611  1.00269443 49756
FM-6                    
1 39360U 13058A   26148.34529402 -.00000007  00000+0  00000+0 0  9994
2 39360   0.0052  25.7350 0003111 167.1501  60.9704  1.00270144 45878
INTELSAT 30 (IS-30)     
1 40271U 14062A   26148.41414968 -.00000142  00000+0  00000+0 0  9991
2 40271   0.0346  59.3384 0000994 341.6943 258.9681  1.00271437  6597
DIRECTV 14              
1 40333U 14078B   26148.46791045 -.00000116  00000+0  00000+0 0  9997
2 40333   0.0108 316.1976 0000232 278.5972  80.4310  1.00268094 41847
DIRECTV 15              
1 40663U 15026A   26148.52808102  .00000000  00000+0  00000+0 0  9998
2 40663   0.0209 339.7862 0000219 115.1954 238.3115  1.00268265 40263
SKY MEXICO-1            
1 40664U 15026B   26148.34867175 -.00000225  00000+0  00000+0 0  9994
2 40664   0.0165 307.0493 0002221 136.3635 209.1894  1.00270429 40253
INTELSAT 34 (IS-34)     
1 40874U 15039A   26148.49584933 -.00000276  00000+0  00000+0 0  9991
2 40874   0.0101 315.7546 0000340  49.2424   4.0557  1.00270631 39430
INTELSAT 31 (IS-31)     
1 41581U 16035A   26148.48804928 -.00000143  00000+0  00000+0 0  9995
2 41581   0.0150 274.5498 0000386 334.5343  77.6074  1.00277016 36484
INTELSAT 36 (IS-36)     
1 41747U 16053A   26148.52046277 -.00000015  00000+0  00000+0 0  9997
2 41747   0.0156   6.9419 0001566 336.6657 158.3300  1.00270272 35762
INTELSAT 32E (IS-32E)   
1 41945U 17007B   26148.49827601 -.00000260  00000+0  00000+0 0  9993
2 41945   0.0190 353.3650 0000391   8.2396  20.6339  1.00271220 34028
INTELSAT 35E (IS-35E)   
1 42818U 17041A   26148.41226241 -.00000229  00000+0  00000+0 0  9991
2 42818   0.0187 355.9401 0002313  71.0666 292.8826  1.00271965 32613
INTELSAT 37E (IS-37E)   
1 42950U 17059A   26148.43198881  .00000000  00000+0  00000+0 0  9993
2 42950   0.0196 340.3723 0002634 101.8326 301.2896  1.00269621 31860
AZERSPACE 2 (IS-38)     
1 43632U 18074A   26148.51578274  .00000146  00000+0  00000+0 0  9997
2 43632   0.0144 300.1643 0001694 114.5820  62.1056  1.00272182 28257
HORIZONS-3E             
1 43633U 18074B   26148.32642845 -.00000022  00000+0  00000+0 0  9997
2 43633   0.0059 111.5592 0000631 170.4548 250.3605  1.00272554 28140
AT&T T-16               
1 44333U 19034A   26148.48692262 -.00000106  00000+0  00000+0 0  9990
2 44333   0.0440 106.1524 0000383 145.4006  68.9112  1.00272273 25435
INTELSAT 39 (IS-39)     
1 44476U 19049B   26148.51916277  .00000042  00000+0  00000+0 0  9991
2 44476   0.0136 332.6613 0000482   1.5141 160.7334  1.00271723 24932
GALAXY 30 (G-30)        
1 46114U 20056C   26148.43788891  .00000046  00000+0  00000+0 0  9996
2 46114   0.0026 346.4653 0002492  78.3859 213.7667  1.00270341 21096
GALAXY 33 (G-33)        
1 54026U 22128A   26147.93447655  .00000086  00000+0  00000+0 0  9997
2 54026   0.0077 309.8424 0002023 121.4478  17.6264  1.00274262 13540
GALAXY 34 (G-34)        
1 54027U 22128B   26148.40997654  .00000000  00000+0  00000+0 0  9996
2 54027   0.0203 320.3919 0001908 110.0329 194.1202  1.00270130 13711
GALAXY 31 (G-31)        
1 54243U 22153A   26148.53501234  .00000022  00000+0  00000+0 0  9997
2 54243   0.0190 279.2642 0001505 149.5189 248.9105  1.00273406  6930
GALAXY 32 (G-32)        
1 54244U 22153B   26148.48882928 -.00000165  00000+0  00000+0 0  9993
2 54244   0.0103   1.5749 0002557  30.8195 298.6205  1.00272002 12948
GALAXY 35 (G-35)        
1 54741U 22170A   26148.48839595 -.00000153  00000+0  00000+0 0  9993
2 54741   0.0165 290.2371 0002268 139.3408 259.1746  1.00272254 12690
GALAXY 36 (G-36)        
1 54742U 22170B   26148.48926263 -.00000176  00000+0  00000+0 0  9998
2 54742   0.0182 131.1374 0002892 304.3521 257.6785  1.00272269 12578
GALAXY 37 (G-37)        
1 57493U 23112A   26148.31642132  .00000056  00000+0  00000+0 0  9999
2 57493   0.0166 358.9082 0002116  62.2019 171.6729  1.00272907 10347
